[{"COMMENT":"GENERATED VIA SPACETRACK.ORG API","ORIGINATOR":"18 SPCS","NORAD_CAT_ID":"43477","OBJECT_NAME":"GRACE-FO 2","OBJECT_TYPE":"PAYLOAD","CLASSIFICATION_TYPE":"U","INTLDES":"18047B","EPOCH":"2023-01-29 21:11:31","EPOCH_MICROSECONDS":"9920","MEAN_MOTION":"15.2498849","ECCENTRICITY":"0.0013125","INCLINATION":"88.991","RA_OF_ASC_NODE":"7.8588","ARG_OF_PERICENTER":"194.9438","MEAN_ANOMALY":"165.1424","EPHEMERIS_TYPE":"0","ELEMENT_SET_NO":"999","REV_AT_EPOCH":"26091","BSTAR":"0.00011551","MEAN_MOTION_DOT":"0.00002915","MEAN_MOTION_DDOT":"0","FILE":"3765015","TLE_LINE0":"0 GRACE-FO 2","TLE_LINE1":"1 43477U 18047B   23029.88299780  .00002915  00000-0  11551-3 0  9995","TLE_LINE2":"2 43477  88.9910   7.8588 0013125 194.9438 165.1424 15.24988490260919","OBJECT_ID":"2018-047B","OBJECT_NUMBER":"43477","SEMIMAJOR_AXIS":"6868.957","PERIOD":"94.427","APOGEE":"499.838","PERIGEE":"481.806","DECAYED":"0"},{"COMMENT":"GENERATED VIA SPACETRACK.ORG API","ORIGINATOR":"18 SPCS","NORAD_CAT_ID":"43477","OBJECT_NAME":"GRACE-FO 2","OBJECT_TYPE":"PAYLOAD","CLASSIFICATION_TYPE":"U","INTLDES":"18047B","EPOCH":"2023-01-30 11:21:57","EPOCH_MICROSECONDS":"221280","MEAN_MOTION":"15.24991975","ECCENTRICITY":"0.0013232","INCLINATION":"88.991","RA_OF_ASC_NODE":"7.7789","ARG_OF_PERICENTER":"192.5679","MEAN_ANOMALY":"167.5241","EPHEMERIS_TYPE":"0","ELEMENT_SET_NO":"999","REV_AT_EPOCH":"26100","BSTAR":"0.00011685","MEAN_MOTION_DOT":"0.00002949","MEAN_MOTION_DDOT":"0","FILE":"3765450","TLE_LINE0":"0 GRACE-FO 2","TLE_LINE1":"1 43477U 18047B   23030.47357895  .00002949  00000-0  11685-3 0  9999","TLE_LINE2":"2 43477  88.9910   7.7789 0013232 192.5679 167.5241 15.24991975261007","OBJECT_ID":"2018-047B","OBJECT_NUMBER":"43477","SEMIMAJOR_AXIS":"6868.947","PERIOD":"94.427","APOGEE":"499.901","PERIGEE":"481.723","DECAYED":"0"},{"COMMENT":"GENERATED VIA SPACETRACK.ORG API","ORIGINATOR":"18 SPCS","NORAD_CAT_ID":"43477","OBJECT_NAME":"GRACE-FO 2","OBJECT_TYPE":"PAYLOAD","CLASSIFICATION_TYPE":"U","INTLDES":"18047B","EPOCH":"2023-01-30 14:30:56","EPOCH_MICROSECONDS":"366784","MEAN_MOTION":"15.24992557","ECCENTRICITY":"0.0013257","INCLINATION":"88.9909","RA_OF_ASC_NODE":"7.7612","ARG_OF_PERICENTER":"192.0363","MEAN_ANOMALY":"168.0571","EPHEMERIS_TYPE":"0","ELEMENT_SET_NO":"999","REV_AT_EPOCH":"26102","BSTAR":"0.00011319","MEAN_MOTION_DOT":"0.00002857","MEAN_MOTION_DDOT":"0","FILE":"3765576","TLE_LINE0":"0 GRACE-FO 2","TLE_LINE1":"1 43477U 18047B   23030.60481906  .00002857  00000-0  11319-3 0  9997","TLE_LINE2":"2 43477  88.9909   7.7612 0013257 192.0363 168.0571 15.24992557261023","OBJECT_ID":"2018-047B","OBJECT_NUMBER":"43477","SEMIMAJOR_AXIS":"6868.945","PERIOD":"94.427","APOGEE":"499.916","PERIGEE":"481.704","DECAYED":"0"},{"COMMENT":"GENERATED VIA SPACETRACK.ORG API","ORIGINATOR":"18 SPCS","NORAD_CAT_ID":"43477","OBJECT_NAME":"GRACE-FO 2","OBJECT_TYPE":"PAYLOAD","CLASSIFICATION_TYPE":"U","INTLDES":"18047B","EPOCH":"2023-01-30 22:23:24","EPOCH_MICROSECONDS":"200736","MEAN_MOTION":"15.24994301","ECCENTRICITY":"0.0013323","INCLINATION":"88.9909","RA_OF_ASC_NODE":"7.7167","ARG_OF_PERICENTER":"190.7184","MEAN_ANOMALY":"169.3782","EPHEMERIS_TYPE":"0","ELEMENT_SET_NO":"999","REV_AT_EPOCH":"26107","BSTAR":"0.0001095","MEAN_MOTION_DOT":"0.00002766","MEAN_MOTION_DDOT":"0","FILE":"3765849","TLE_LINE0":"0 GRACE-FO 2","TLE_LINE1":"1 43477U 18047B   23030.93291899  .00002766  00000-0  10950-3 0  9992","TLE_LINE2":"2 43477  88.9909   7.7167 0013323 190.7184 169.3782 15.24994301261070","OBJECT_ID":"2018-047B","OBJECT_NUMBER":"43477","SEMIMAJOR_AXIS":"6868.940","PERIOD":"94.427","APOGEE":"499.956","PERIGEE":"481.653","DECAYED":"0"},{"COMMENT":"GENERATED VIA SPACETRACK.ORG API","ORIGINATOR":"18 SPCS","NORAD_CAT_ID":"43477","OBJECT_NAME":"GRACE-FO 2","OBJECT_TYPE":"PAYLOAD","CLASSIFICATION_TYPE":"U","INTLDES":"18047B","EPOCH":"2023-01-31 14:08:19","EPOCH_MICROSECONDS":"802976","MEAN_MOTION":"15.24996641","ECCENTRICITY":"0.001347","INCLINATION":"88.9909","RA_OF_ASC_NODE":"7.6279","ARG_OF_PERICENTER":"188.1418","MEAN_ANOMALY":"171.9614","EPHEMERIS_TYPE":"0","ELEMENT_SET_NO":"999","REV_AT_EPOCH":"26117","BSTAR":"0.000085382","MEAN_MOTION_DOT":"0.00002164","MEAN_MOTION_DDOT":"0","FILE":"3766475","TLE_LINE0":"0 GRACE-FO 2","TLE_LINE1":"1 43477U 18047B   23031.58911809  .00002164  00000-0  85382-4 0  9998","TLE_LINE2":"2 43477  88.9909   7.6279 0013470 188.1418 171.9614 15.24996641261170","OBJECT_ID":"2018-047B","OBJECT_NUMBER":"43477","SEMIMAJOR_AXIS":"6868.933","PERIOD":"94.426","APOGEE":"500.050","PERIGEE":"481.545","DECAYED":"0"},{"COMMENT":"GENERATED VIA SPACETRACK.ORG API","ORIGINATOR":"18 SPCS","NORAD_CAT_ID":"43477","OBJECT_NAME":"GRACE-FO 2","OBJECT_TYPE":"PAYLOAD","CLASSIFICATION_TYPE":"U","INTLDES":"18047B","EPOCH":"2023-01-31 18:51:48","EPOCH_MICROSECONDS":"500064","MEAN_MOTION":"15.24996056","ECCENTRICITY":"0.0013521","INCLINATION":"88.9909","RA_OF_ASC_NODE":"7.6013","ARG_OF_PERICENTER":"187.3279","MEAN_ANOMALY":"172.7774","EPHEMERIS_TYPE":"0","ELEMENT_SET_NO":"999","REV_AT_EPOCH":"26120","BSTAR":"0.000058247","MEAN_MOTION_DOT":"0.00001486","MEAN_MOTION_DDOT":"0","FILE":"3766610","TLE_LINE0":"0 GRACE-FO 2","TLE_LINE1":"1 43477U 18047B   23031.78597801  .00001486  00000-0  58247-4 0  9998","TLE_LINE2":"2 43477  88.9909   7.6013 0013521 187.3279 172.7774 15.24996056261209","OBJECT_ID":"2018-047B","OBJECT_NUMBER":"43477","SEMIMAJOR_AXIS":"6868.934","PERIOD":"94.426","APOGEE":"500.087","PERIGEE":"481.512","DECAYED":"0"},{"COMMENT":"GENERATED VIA SPACETRACK.ORG API","ORIGINATOR":"18 SPCS","NORAD_CAT_ID":"43477","OBJECT_NAME":"GRACE-FO 2","OBJECT_TYPE":"PAYLOAD","CLASSIFICATION_TYPE":"U","INTLDES":"18047B","EPOCH":"2023-01-31 22:00:47","EPOCH_MICROSECONDS":"637792","MEAN_MOTION":"15.24997361","ECCENTRICITY":"0.0013473","INCLINATION":"88.991","RA_OF_ASC_NODE":"7.5835","ARG_OF_PERICENTER":"187.0816","MEAN_ANOMALY":"173.0244","EPHEMERIS_TYPE":"0","ELEMENT_SET_NO":"999","REV_AT_EPOCH":"26122","BSTAR":"0.000092968","MEAN_MOTION_DOT":"0.00002353","MEAN_MOTION_DDOT":"0","FILE":"3766747","TLE_LINE0":"0 GRACE-FO 2","TLE_LINE1":"1 43477U 18047B   23031.91721803  .00002353  00000-0  92968-4 0  9996","TLE_LINE2":"2 43477  88.9910   7.5835 0013473 187.0816 173.0244 15.24997361261220","OBJECT_ID":"2018-047B","OBJECT_NUMBER":"43477","SEMIMAJOR_AXIS":"6868.930","PERIOD":"94.426","APOGEE":"500.050","PERIGEE":"481.541","DECAYED":"0"},{"COMMENT":"GENERATED VIA SPACETRACK.ORG API","ORIGINATOR":"18 SPCS","NORAD_CAT_ID":"43477","OBJECT_NAME":"GRACE-FO 2","OBJECT_TYPE":"PAYLOAD","CLASSIFICATION_TYPE":"U","INTLDES":"18047B","EPOCH":"2023-02-01 13:45:43","EPOCH_MICROSECONDS":"49088","MEAN_MOTION":"15.25000154","ECCENTRICITY":"0.0013691","INCLINATION":"88.9909","RA_OF_ASC_NODE":"7.4946","ARG_OF_PERICENTER":"184.1499","MEAN_ANOMALY":"175.9638","EPHEMERIS_TYPE":"0","ELEMENT_SET_NO":"999","REV_AT_EPOCH":"26132","BSTAR":"0.000064218","MEAN_MOTION_DOT":"0.00001635","MEAN_MOTION_DDOT":"0","FILE":"3767525","TLE_LINE0":"0 GRACE-FO 2","TLE_LINE1":"1 43477U 18047B   23032.57341492  .00001635  00000-0  64218-4 0  9990","TLE_LINE2":"2 43477  88.9909   7.4946 0013691 184.1499 175.9638 15.25000154261322","OBJECT_ID":"2018-047B","OBJECT_NUMBER":"43477","SEMIMAJOR_AXIS":"6868.922","PERIOD":"94.426","APOGEE":"500.191","PERIGEE":"481.383","DECAYED":"0"},{"COMMENT":"GENERATED VIA SPACETRACK.ORG API","ORIGINATOR":"18 SPCS","NORAD_CAT_ID":"43477","OBJECT_NAME":"GRACE-FO 2","OBJECT_TYPE":"PAYLOAD","CLASSIFICATION_TYPE":"U","INTLDES":"18047B","EPOCH":"2023-02-02 03:56:08","EPOCH_MICROSECONDS":"866464","MEAN_MOTION":"15.25004438","ECCENTRICITY":"0.0013801","INCLINATION":"88.9911","RA_OF_ASC_NODE":"7.4146","ARG_OF_PERICENTER":"181.8501","MEAN_ANOMALY":"178.2698","EPHEMERIS_TYPE":"0","ELEMENT_SET_NO":"999","REV_AT_EPOCH":"26141","BSTAR":"0.00011005","MEAN_MOTION_DOT":"0.00002781","MEAN_MOTION_DDOT":"0","FILE":"3767893","TLE_LINE0":"0 GRACE-FO 2","TLE_LINE1":"1 43477U 18047B   23033.16399151  .00002781  00000-0  11005-3 0  9999","TLE_LINE2":"2 43477  88.9911   7.4146 0013801 181.8501 178.2698 15.25004438261419","OBJECT_ID":"2018-047B","OBJECT_NUMBER":"43477","SEMIMAJOR_AXIS":"6868.909","PERIOD":"94.426","APOGEE":"500.254","PERIGEE":"481.294","DECAYED":"0"},{"COMMENT":"GENERATED VIA SPACETRACK.ORG API","ORIGINATOR":"18 SPCS","NORAD_CAT_ID":"43477","OBJECT_NAME":"GRACE-FO 2","OBJECT_TYPE":"PAYLOAD","CLASSIFICATION_TYPE":"U","INTLDES":"18047B","EPOCH":"2023-02-02 13:23:05","EPOCH_MICROSECONDS":"993664","MEAN_MOTION":"15.25007143","ECCENTRICITY":"0.0013875","INCLINATION":"88.9911","RA_OF_ASC_NODE":"7.3614","ARG_OF_PERICENTER":"180.3012","MEAN_ANOMALY":"179.823","EPHEMERIS_TYPE":"0","ELEMENT_SET_NO":"999","REV_AT_EPOCH":"26147","BSTAR":"0.00011249","MEAN_MOTION_DOT":"0.00002842","MEAN_MOTION_DDOT":"0","FILE":"3768366","TLE_LINE0":"0 GRACE-FO 2","TLE_LINE1":"1 43477U 18047B   23033.55770826  .00002842  00000-0  11249-3 0  9992","TLE_LINE2":"2 43477  88.9911   7.3614 0013875 180.3012 179.8230 15.25007143261471","OBJECT_ID":"2018-047B","OBJECT_NUMBER":"43477","SEMIMAJOR_AXIS":"6868.901","PERIOD":"94.426","APOGEE":"500.297","PERIGEE":"481.235","DECAYED":"0"}]